IRIDIUM 64 [+]          
1 25287U 98021C   16165.29043782  .00000114  00000-0  33507-4 0  9996
2 25287  86.3960  18.1719 0002180  83.4631 276.6813 14.34216706952127
IRIDIUM 65 [+]          
1 25288U 98021D   16165.29677737  .00000101  00000-0  29055-4 0  9999
2 25288  86.3959  18.0792 0002364  89.0058 271.1409 14.34218872952144
IRIDIUM 66 [+]          
1 25289U 98021E   16165.51628756  .00000099  00000-0  28266-4 0  9991
2 25289  86.3957  17.8940 0002266  90.1269 289.9268 14.34216521952175
IRIDIUM 67 [+]          
1 25290U 98021F   16165.51877303  .00000069  00000-0  17738-4 0  9996
2 25290  86.3959  18.0239 0002228  88.4802 271.6649 14.34216511952185
IRIDIUM 68 [+]          
1 25291U 98021G   16165.52511493  .00000105  00000-0  30420-4 0  9997
2 25291  86.3961  18.1330 0002189  90.2929 269.8518 14.34219426952158
IRIDIUM 69 [-]          
1 25319U 98026A   16165.33400690  .00000109  00000-0  29041-4 0  9999
2 25319  86.4000  40.9007 0003899  69.1094 291.0521 14.38595468950005
IRIDIUM 71 [-]          
1 25320U 98026B   16165.49971735  .00000045  00000-0  81912-5 0  9996
2 25320  86.3981  36.8984 0004115 101.7216 258.4444 14.39009654950440
IRIDIUM 70 [+]          
1 25342U 98032A   16165.48944381  .00000113  00000-0  33363-4 0  9995
2 25342  86.3967  18.3721 0002277  90.9620 314.2098 14.34219412946257
IRIDIUM 72 [+]          
1 25343U 98032B   16165.34809699  .00000095  00000-0  27034-4 0  9990
2 25343  86.3960  18.0671 0002243  88.5758  12.7218 14.34219173946236
IRIDIUM 73 [-]          
1 25344U 98032C   16165.51308766  .00000178  00000-0  41671-4 0  9994
2 25344  86.4416 358.7430 0001918 106.6936 253.4478 14.48944372954163
IRIDIUM 74 [S]          
1 25345U 98032D   16165.49893756  .00000111  00000-0  27229-4 0  9990
2 25345  86.4471  18.3416 0002299  83.1655 323.1096 14.42949140949581
IRIDIUM 75 [+]          
1 25346U 98032E   16165.35476574  .00000112  00000-0  32872-4 0  9992
2 25346  86.3963  18.3035 0002219  88.3230  14.6539 14.34216561946803
IRIDIUM 3 [+]           
1 25431U 98048A   16165.20136394  .00000173  00000-0  54606-4 0  9997
2 25431  86.3976  49.9700 0002326  88.2421  23.6948 14.34217876932721
IRIDIUM 76 [+]          
1 25432U 98048B   16165.22052244  .00000179  00000-0  56776-4 0  9997
2 25432  86.3971  49.7282 0002128  88.9951  23.6487 14.34218122932717
IRIDIUM 82 [+]          
1 25467U 98051A   16165.44703282  .00000034  00000-0  51534-5 0  9996
2 25467  86.3977 176.2918 0002547  84.8856 275.2630 14.34217880933768
IRIDIUM 81 [+]          
1 25468U 98051B   16165.44069238  .00000022  00000-0  96742-6 0  9991
2 25468  86.3970 175.9139 0002230  84.9641 275.1809 14.34217914929989
IRIDIUM 80 [+]          
1 25469U 98051C   16165.29714227 -.00000008  00000-0 -97897-5 0  9997
2 25469  86.3974 176.2431 0002119  84.3089 353.2068 14.34218307929969
IRIDIUM 77 [+]          
1 25471U 98051E   16165.09066716 -.00000005  00000-0 -89269-5 0  9992
2 25471  86.3966 175.9352 0002262  88.6470 330.7576 14.34218249935136
IRIDIUM 2 [-]           
1 25527U 98066A   16165.45875427  .00001726  00000-0  89683-4 0  9995
2 25527  85.5324 249.6548 0009971  19.3204 340.8411 15.15292953962014
IRIDIUM 86 [+]          
1 25528U 98066B   16165.31678044 -.00000013  00000-0 -11782-4 0  9992
2 25528  86.3958 144.0388 0002396  87.0717 273.0753 14.34216631926499
IRIDIUM 84 [+]          
1 25530U 98066D   16165.06941772 -.00000015  00000-0 -12515-4 0  9995
2 25530  86.3959 144.3007 0002208  82.0762 278.0684 14.34216662924097
IRIDIUM 83 [+]          
1 25531U 98066E   16165.44998621  .00000034  00000-0  50171-5 0  9993
2 25531  86.3961 144.2522 0002254  86.6198 273.5256 14.34215621921508
IRIDIUM 20 [+]          
1 25577U 98074A   16165.43973208  .00000186  00000-0  59447-4 0  9997
2 25577  86.3970  49.5631 0002265  85.6262 274.5192 14.34218147915586
IRIDIUM 11 [+]          
1 25578U 98074B   16165.53147515  .00000177  00000-0  56173-4 0  9996
2 25578  86.3971  49.7299 0002311  83.1843 324.8620 14.34218251924569
IRIDIUM 14 [S]          
1 25777U 99032A   16165.50254880  .00000108  00000-0  31329-4 0  9993
2 25777  86.3961  18.0778 0002338  90.3157 316.8575 14.34216745901838
IRIDIUM 21 [+]          
1 25778U 99032B   16165.53145596  .00000092  00000-0  25748-4 0  9990
2 25778  86.3960  18.0890 0002074  88.7575 271.3859 14.34219419895276
IRIDIUM 91 [+]          
1 27372U 02005A   16165.31285679  .00000049  00000-0  10379-4 0  9995
2 27372  86.3989  82.0220 0002343  78.5792  34.6964 14.34215457758750
IRIDIUM 90 [S]          
1 27373U 02005B   16165.47517507  .00000035  00000-0  45062-5 0  9994
2 27373  86.4472 144.2115 0002373  91.3853 268.7620 14.42954658758185
IRIDIUM 94 [S]          
1 27374U 02005C   16165.48190440  .00000172  00000-0  54310-4 0  9996
2 27374  86.3970  49.8727 0002224 109.0946 304.9780 14.34218388763104
IRIDIUM 95 [+]          
1 27375U 02005D   16165.46851721  .00000207  00000-0  67000-4 0  9990
2 27375  86.3992  81.7394 0002263  91.1916 268.9539 14.34219950758061
IRIDIUM 96 [S]          
1 27376U 02005E   16165.37680594  .00000177  00000-0  56247-4 0  9996
2 27376  86.3999 113.2860 0000882  91.9744 268.1553 14.34219407763252
IRIDIUM 97 [+]          
1 27450U 02031A   16165.34509383  .00000172  00000-0  54300-4 0  9994
2 27450  86.3969 113.1109 0002369  82.1226 278.0239 14.34213822737365
IRIDIUM 98 [S]          
1 27451U 02031B   16165.13641933 -.00000007  00000-0 -95739-5 0  9991
2 27451  86.3967 176.4875 0002229  83.2493 343.1535 14.34218481738404
